ASTROCAST-0403          
1 55111U 23001DG  26068.82333059  .00013959  00000+0  51317-3 0  9990
2 55111  97.5604 161.3228 0004770 338.0704  22.0330 15.28004949129376
STARLINK-32599          
1 62048U 24216S   26068.90114945  .00045138  00000+0  16390-2 0  9991
2 62048  43.0042 262.4209 0002913 261.7643  98.2879 15.27593793 73828
